SL-14 R/B               
1 20511U 90018B   26168.68647834  .00000303  00000+0  34902-4 0  9993
2 20511  82.5210 129.6408 0017470 120.2044 240.0903 14.82216346937397
HST                     
1 20580U 90037B   26168.14321654  .00005620  00000+0  17616-3 0  9999
2 20580  28.4720  80.8753 0001815 141.8279 218.2446 15.30747004788560
SL-16 R/B               
1 20625U 90046B   26168.79646368  .00000090  00000+0  70872-4 0  9992
2 20625  71.0000  87.6684 0013290 160.8534 199.3091 14.15026839862553
COSMOS 2084             
1 20663U 90055A   26168.79181591  .00001680  00000+0  12802-3 0  9990
2 20663  62.7899 354.0272 0005609 279.9376  80.1091 15.06118169951390
SL-6 R/B(2)             
1 20666U 90055D   26168.64770244  .00001199  00000+0  99619-4 0  9993
2 20666  62.7823 273.8094 0040738   5.2182 354.9333 15.04004273953220
SL-8 R/B                
1 20775U 90078B   26168.46324706  .00020481  00000+0  57730-3 0  9999
2 20775  82.9016 161.3960 0350861  37.5373 324.9789 14.92330883824160
SL-8 R/B                
1 21088U 91006B   26168.78887186  .00000058  00000+0  42989-4 0  9999
2 21088  82.9425  95.5861 0023717 112.9578 304.2368 13.77505904777859
OKEAN-3                 
1 21397U 91039A   26168.73687622  .00002314  00000+0  15948-3 0  9997
2 21397  82.5161 239.8482 0014015 356.0579   4.0535 15.05326451880082
COSMOS 2151             
1 21422U 91042A   26168.79330352  .00001215  00000+0  94290-4 0  9998
2 21422  82.4960 347.0959 0013812  82.2396 278.0396 15.00439789878200
SL-14 R/B               
1 21423U 91042B   26168.82815376  .00000300  00000+0  34938-4 0  9994
2 21423  82.4927 126.2944 0015404 272.5277  87.4173 14.81902846867903
ERS-1                   
1 21574U 91050A   26168.65136488  .00000200  00000+0  78668-4 0  9998
2 21574  98.7797 189.3607 0030717 265.5054  94.2623 14.39517854830113
ARIANE 40 R/B           
1 21610U 91050F   26168.74245084  .00000213  00000+0  76081-4 0  9993
2 21610  98.1876 217.1377 0004272 120.3661 239.7952 14.42957352833422
INTERCOSMOS 25          
1 21819U 91086A   26168.60701462  .00000712  00000+0  14190-3 0  9991
2 21819  82.6052 249.5558 1484002 261.4877  81.5862 12.12196119508790
SL-8 R/B                
1 21876U 92008B   26168.49897953  .00000131  00000+0  11887-3 0  9992
2 21876  82.9262 193.5557 0033860 213.7960 254.6254 13.75977041723147
SL-8 R/B                
1 21938U 92020B   26168.78009832  .00000077  00000+0  63513-4 0  9991
2 21938  82.9305  79.4170 0029691  20.9485  33.4577 13.75548915714891
USA 81                  
1 21949U 92023A   26168.76384385  .00000145  00000+0  46178-4 0  9997
2 21949  85.0074  73.6747 0002748  84.0257 276.1249 14.32398319109118
COSMOS 2219             
1 22219U 92076A   26168.40283460  .00000278  00000+0  17054-3 0  9996
2 22219  71.0579 169.6209 0016609  43.8060 316.4377 14.14099164732476
SL-16 R/B               
1 22220U 92076B   26168.81425590  .00000228  00000+0  13760-3 0  9990
2 22220  71.0005 337.4601 0014673 297.8229 162.9061 14.16872546736013
COSMOS 2221             
1 22236U 92080A   26168.54019110  .00001106  00000+0  94887-4 0  9995
2 22236  82.5030 183.4264 0013298 210.9421 149.1019 14.96533739795720
SL-16 R/B               
1 22285U 92093B   26168.38378014 -.00000291  00000+0 -12464-3 0  9992
2 22285  71.0197 154.9786 0003942 188.1315 171.9745 14.15461119727262
COSMOS 2228             
1 22286U 92094A   26168.82265764  .00001632  00000+0  13714-3 0  9997
2 22286  82.5174 141.4341 0016843 330.1174  29.9085 14.97588599791047
SL-16 R/B               
1 22566U 93016B   26168.78794589  .00000233  00000+0  14418-3 0  9998
2 22566  71.0085   4.9456 0010155 182.7070 177.4000 14.15314547716333
COSMOS 2242             
1 22626U 93024A   26168.51500680  .00001310  00000+0  11164-3 0  9994
2 22626  82.5179 171.2292 0015338 335.1626  24.8856 14.96904128795325
SL-16 R/B               
1 22803U 93059B   26168.41933214 -.00000088  00000+0 -19989-4 0  9998
2 22803  70.9886 160.8140 0015209  53.4989 306.7533 14.17248281693665
ARIANE 40 R/B           
1 22830U 93061H   26168.76402183  .00000139  00000+0  66787-4 0  9998
2 22830  98.4819 235.6090 0010402 354.4306   5.6761 14.32908163708437
COSMOS 2278             
1 23087U 94023A   26168.81269572  .00000065  00000+0  58680-4 0  9992
2 23087  71.0549 325.6157 0010621 242.5299 117.4744 14.14398338658966
SL-16 R/B               
1 23088U 94023B   26168.60211279  .00000238  00000+0  14749-3 0  9990
2 23088  70.9993 221.0600 0002736 186.2744 173.8345 14.15025572660220
SL-16 R/B               
1 23343U 94074B   26168.63036359  .00000310  00000+0  48072-4 0  9995
2 23343  97.6990 195.3329 0005157 251.5240 220.8461 14.79502618702023
SL-16 R/B               
1 23405U 94077B   26168.33272464  .00000107  00000+0  78919-4 0  9990
2 23405  70.9809 142.8561 0002928 327.7854  32.3089 14.15572187630334
ARIANE 40+ R/B          
1 23561U 95021B   26168.82999858  .00000208  00000+0  79999-4 0  9991
2 23561  98.4412 238.8956 0006499 191.6720 287.6471 14.39833702633650
SL-16 R/B               
1 23705U 95058B   26168.76852351  .00000284  00000+0  16959-3 0  9990
2 23705  71.0221 330.1376 0013798 319.6680  40.3419 14.15508871582013
